NORAD_CAT_ID,OBJECT_NAME,OBJECT_TYPE,EPOCH,MEAN_MOTION,ECCENTRICITY,INCLINATION,RA_OF_ASC_NODE,ARG_OF_PERICENTER,MEAN_ANOMALY,BSTAR,MEAN_MOTION_DOT,MEAN_MOTION_DDOT,TLE_LINE0,TLE_LINE1,TLE_LINE2,SEMIMAJOR_AXIS,PERIOD,APOGEE,PERIGEE,DECAYED
53256.0,STARLINK-4147,PAYLOAD,2024-07-06 21:29:06,15.08840598,0.0001291,53.2157,56.0816,100.7114,259.4023,-4.6412e-05,-1.026e-05,0.0,0 STARLINK-4147,1 53256U 22086Q   24188.89520957 -.00001026  00000-0 -46412-4 0  9999,2 53256  53.2157  56.0816 0001291 100.7114 259.4023 15.08840598108854,6917.879,95.438,540.637,538.85,0.0
53256.0,STARLINK-4147,PAYLOAD,2024-07-07 08:36:47,15.08841465,0.0001371,53.2167,54.0003,96.7251,263.3897,-2.6178e-05,-7.05e-06,0.0,0 STARLINK-4147,1 53256U 22086Q   24189.35888833 -.00000705  00000-0 -26178-4 0  9991,2 53256  53.2167  54.0003 0001371  96.7251 263.3897 15.08841465108921,6917.876,95.437,540.689,538.792,0.0
53256.0,STARLINK-4147,PAYLOAD,2024-07-07 19:44:29,15.08843741,0.000121,53.2159,51.9184,93.6059,266.5072,7.2275e-05,8.63e-06,0.0,0 STARLINK-4147,1 53256U 22086Q   24189.82256334  .00000863  00000-0  72275-4 0  9990,2 53256  53.2159  51.9184 0001210  93.6059 266.5072 15.08843741108819,6917.869,95.437,540.571,538.897,0.0
53256.0,STARLINK-4147,PAYLOAD,2024-07-07 21:19:52,15.08849256,0.0001322,53.2167,51.6212,96.1597,263.9546,-2.9509e-06,-3.35e-06,0.0,0 STARLINK-4147,1 53256U 22086Q   24189.88880288 -.00000335  00000-0 -29509-5 0  9996,2 53256  53.2167  51.6212 0001322  96.1597 263.9546 15.08849256109002,6917.852,95.437,540.632,538.803,0.0
53256.0,STARLINK-4147,PAYLOAD,2024-07-08 21:10:39,15.08844876,0.0001449,53.2174,47.1602,95.0254,265.0904,8.8471e-05,1.121e-05,0.0,0 STARLINK-4147,1 53256U 22086Q   24190.88240170  .00001121  00000-0  88471-4 0  9992,2 53256  53.2174  47.1602 0001449  95.0254 265.0904 15.08844876108970,6917.865,95.437,540.733,538.728,0.0
53256.0,STARLINK-4147,PAYLOAD,2024-07-09 14:39:54,15.08835886,0.0001534,53.2185,43.8835,112.2951,247.8204,-5.6836e-05,-1.192e-05,0.0,0 STARLINK-4147,1 53256U 22086Q   24191.61105140 -.00001192  00000-0 -56836-4 0  9991,2 53256  53.2185  43.8835 0001534 112.2951 247.8204 15.08835886109269,6917.893,95.438,540.819,538.697,0.0
53256.0,STARLINK-4147,PAYLOAD,2024-07-09 21:01:27,15.0883563,0.0001328,53.2169,42.6933,99.2856,260.8286,-6.3516e-05,-1.298e-05,0.0,0 STARLINK-4147,1 53256U 22086Q   24191.87601244 -.00001298  00000-0 -63516-4 0  9995,2 53256  53.2169  42.6933 0001328  99.2856 260.8286 15.08835630109123,6917.894,95.438,540.677,538.84,0.0
53256.0,STARLINK-4147,PAYLOAD,2024-07-10 06:33:46,15.08834692,0.0001399,53.2179,40.9157,97.8019,262.3132,-2.8428e-05,-7.4e-06,0.0,0 STARLINK-4147,1 53256U 22086Q   24192.27345409 -.00000740  00000-0 -28428-4 0  9992,2 53256  53.2179  40.9157 0001399  97.8019 262.3132 15.08834692109366,6917.897,95.438,540.729,538.794,0.0
53256.0,STARLINK-4147,PAYLOAD,2024-07-11 12:46:06,15.08831316,0.0001291,53.2175,35.2657,91.5663,268.5477,9.7341e-05,1.261e-05,0.0,0 STARLINK-4147,1 53256U 22086Q   24193.53201689  .00001261  00000-0  97341-4 0  9990,2 53256  53.2175  35.2657 0001291  91.5663 268.5477 15.08831316109552,6917.907,95.438,540.665,538.879,0.0
53256.0,STARLINK-4147,PAYLOAD,2024-07-11 23:53:47,15.08842966,0.0001324,53.218,33.1845,86.4367,273.6777,0.00016872,2.399e-05,0.0,0 STARLINK-4147,1 53256U 22086Q   24193.99568932  .00002399  00000-0  16872-3 0  9999,2 53256  53.2180  33.1845 0001324  86.4367 273.6777 15.08842966109446,6917.871,95.437,540.652,538.82,0.0
53256.0,STARLINK-4147,PAYLOAD,2024-07-12 06:15:20,15.08834734,0.0001247,53.2181,31.9911,93.1014,267.0121,0.00011114,1.481e-05,0.0,0 STARLINK-4147,1 53256U 22086Q   24194.26065719  .00001481  00000-0  11114-3 0  9990,2 53256  53.2181  31.9911 0001247  93.1014 267.0121 15.08834734109483,6917.896,95.438,540.624,538.899,0.0
53256.0,STARLINK-4147,PAYLOAD,2024-07-12 20:33:49,15.08845361,0.0001359,53.2178,29.3169,86.7433,273.3715,-6.3194e-06,-3.89e-06,0.0,0 STARLINK-4147,1 53256U 22086Q   24194.85681954 -.00000389  00000-0 -63194-5 0  9995,2 53256  53.2178  29.3169 0001359  86.7433 273.3715 15.08845361109759,6917.864,95.437,540.669,538.789,0.0
53256.0,STARLINK-4147,PAYLOAD,2024-07-13 12:27:40,15.08840606,0.0001369,53.2174,26.3447,85.0959,275.019,-1.0754e-05,-4.59e-06,0.0,0 STARLINK-4147,1 53256U 22086Q   24195.51922126 -.00000459  00000-0 -10754-4 0  9999,2 53256  53.2174  26.3447 0001369  85.0959 275.0190 15.08840606109671,6917.879,95.438,540.691,538.796,0.0
53256.0,STARLINK-4147,PAYLOAD,2024-07-13 20:24:35,15.08846018,0.0001344,53.2168,24.8605,69.8972,290.2164,8.794e-05,1.112e-05,0.0,0 STARLINK-4147,1 53256U 22086Q   24195.85041496  .00001112  00000-0  87940-4 0  9994,2 53256  53.2168  24.8605 0001344  69.8972 290.2164 15.08846018109720,6917.862,95.437,540.657,538.797,0.0
53256.0,STARLINK-4147,PAYLOAD,2024-07-14 12:18:27,15.08840406,0.0001085,53.2169,21.8875,81.8778,278.2337,0.00014244,1.98e-05,0.0,0 STARLINK-4147,1 53256U 22086Q   24196.51281484  .00001980  00000-0  14244-3 0  9990,2 53256  53.2169  21.8875 0001085  81.8778 278.2337 15.08840406110003,6917.879,95.438,540.495,538.994,0.0
53256.0,STARLINK-4147,PAYLOAD,2024-07-14 18:39:59,15.08847618,0.0001302,53.2164,20.6961,84.8207,275.2934,0.00014687,2.051e-05,0.0,0 STARLINK-4147,1 53256U 22086Q   24196.77777045  .00002051  00000-0  14687-3 0  9992,2 53256  53.2164  20.6961 0001302  84.8207 275.2934 15.08847618110049,6917.857,95.437,540.623,538.821,0.0
53256.0,STARLINK-4147,PAYLOAD,2024-07-15 12:09:14,15.08836765,0.0001751,53.2171,17.4272,79.5832,280.5357,4.2383e-05,3.86e-06,0.0,0 STARLINK-4147,1 53256U 22086Q   24197.50642126  .00000386  00000-0  42383-4 0  9999,2 53256  53.2171  17.4272 0001751  79.5832 280.5357 15.08836765109978,6917.89,95.438,540.967,538.544,0.0
53256.0,STARLINK-4147,PAYLOAD,2024-07-15 18:30:47,15.08837308,0.0001467,53.2171,16.2371,88.0065,272.1095,4.3486e-05,4.04e-06,0.0,0 STARLINK-4147,1 53256U 22086Q   24197.77138044  .00000404  00000-0  43486-4 0  9993,2 53256  53.2171  16.2371 0001467  88.0065 272.1095 15.08837308110198,6917.889,95.438,540.768,538.739,0.0
53256.0,STARLINK-4147,PAYLOAD,2024-07-16 12:00:01,15.08844116,0.0001476,53.2179,12.9658,91.6245,268.4916,4.6736e-05,4.56e-06,0.0,0 STARLINK-4147,1 53256U 22086Q   24198.50001489  .00000456  00000-0  46736-4 0  9995,2 53256  53.2179  12.9658 0001476  91.6245 268.4916 15.08844116110305,6917.868,95.437,540.754,538.712,0.0
53256.0,STARLINK-4147,PAYLOAD,2024-07-16 16:46:10,15.0885065,0.0001571,53.218,12.0741,89.3027,270.8145,9.8573e-05,1.282e-05,0.0,0 STARLINK-4147,1 53256U 22086Q   24198.69872996  .00001282  00000-0  98573-4 0  9998,2 53256  53.2180  12.0741 0001571  89.3027 270.8145 15.08850650110153,6917.848,95.437,540.8,538.626,0.0
53256.0,STARLINK-4147,PAYLOAD,2024-07-17 11:50:48,15.08837987,0.0001422,53.217,8.5056,87.7627,272.3528,0.00016042,2.266e-05,0.0,0 STARLINK-4147,1 53256U 22086Q   24199.49362017  .00002266  00000-0  16042-3 0  9998,2 53256  53.2170   8.5056 0001422  87.7627 272.3528 15.08837987110277,6917.887,95.438,540.735,538.768,0.0
53256.0,STARLINK-4147,PAYLOAD,2024-07-17 18:12:21,15.08842657,0.0001339,53.2172,7.3161,86.3051,273.8094,0.00017553,2.507e-05,0.0,0 STARLINK-4147,1 53256U 22086Q   24199.75857882  .00002507  00000-0  17553-3 0  9992,2 53256  53.2172   7.3161 0001339  86.3051 273.8094 15.08842657110494,6917.872,95.437,540.664,538.811,0.0
53256.0,STARLINK-4147,PAYLOAD,2024-07-18 10:06:12,15.0883502,0.0001406,53.2177,4.3416,93.727,266.3883,-4.8027e-05,-1.052e-05,0.0,0 STARLINK-4147,1 53256U 22086Q   24200.42098278 -.00001052  00000-0 -48027-4 0  9992,2 53256  53.2177   4.3416 0001406  93.7270 266.3883 15.08835020110599,6917.896,95.438,540.733,538.788,0.0
53256.0,STARLINK-4147,PAYLOAD,2024-07-18 18:03:08,15.08843149,0.0001288,53.2169,2.8571,95.0206,265.0933,8.8046e-05,1.114e-05,0.0,0 STARLINK-4147,1 53256U 22086Q   24200.75218003  .00001114  00000-0  88046-4 0  9990,2 53256  53.2169   2.8571 0001288  95.0206 265.0933 15.08843149110466,6917.871,95.437,540.627,538.845,0.0
53256.0,STARLINK-4147,PAYLOAD,2024-07-19 14:43:09,15.08841146,0.0001161,53.2166,358.9913,86.8587,273.2537,0.00014641,2.043e-05,0.0,0 STARLINK-4147,1 53256U 22086Q   24201.61330183  .00002043  00000-0  14641-3 0  9991,2 53256  53.2166 358.9913 0001161  86.8587 273.2537 15.08841146110778,6917.877,95.437,540.545,538.939,0.0
53256.0,STARLINK-4147,PAYLOAD,2024-07-19 16:18:32,15.08843292,0.0001204,53.2166,358.6937,87.5712,272.5418,0.0001618,2.288e-05,0.0,0 STARLINK-4147,1 53256U 22086Q   24201.67954116  .00002288  00000-0  16180-3 0  9996,2 53256  53.2166 358.6937 0001204  87.5712 272.5418 15.08843292110782,6917.87,95.437,540.568,538.902,0.0
53256.0,STARLINK-4147,PAYLOAD,2024-07-20 03:26:13,15.08851977,9.99e-05,53.2149,356.6102,69.0431,291.0668,0.00030677,4.599e-05,0.0,0 STARLINK-4147,1 53256U 22086Q   24202.14321618  .00004599  00000-0  30677-3 0  9998,2 53256  53.2149 356.6102 0000999  69.0431 291.0668 15.08851977110678,6917.844,95.437,540.4,539.018,0.0
53256.0,STARLINK-4147,PAYLOAD,2024-07-20 14:33:56,15.08834691,0.0001033,53.2163,354.5309,78.2394,281.8714,-4.1343e-05,-9.46e-06,0.0,0 STARLINK-4147,1 53256U 22086Q   24202.60690305 -.00000946  00000-0 -41343-4 0  9998,2 53256  53.2163 354.5309 0001033  78.2394 281.8714 15.08834691110921,6917.897,95.438,540.476,539.047,0.0
53256.0,STARLINK-4147,PAYLOAD,2024-07-20 16:09:19,15.08839294,0.0001488,53.2187,354.2316,78.5635,281.5525,4.2317e-05,3.86e-06,0.0,0 STARLINK-4147,1 53256U 22086Q   24202.67314230  .00000386  00000-0  42317-4 0  9993,2 53256  53.2187 354.2316 0001488  78.5635 281.5525 15.08839294110759,6917.883,95.438,540.777,538.718,0.0
53256.0,STARLINK-4147,PAYLOAD,2024-07-21 14:24:43,15.08836358,0.0001496,53.2196,350.0668,86.4682,273.6481,1.4764e-05,-5.3e-07,0.0,0 STARLINK-4147,1 53256U 22086Q   24203.60050715 -.00000053  00000-0  14764-4 0  9999,2 53256  53.2196 350.0668 0001496  86.4682 273.6481 15.08836358111079,6917.892,95.438,540.791,538.722,0.0
